[{"OBJECT_NAME":"BUFENG 1B","OBJECT_ID":"2019-032B","EPOCH":"2026-03-09T19:57:27.457920","MEAN_MOTION":15.25619535,"ECCENTRICITY":0.00242037,"INCLINATION":44.9701,"RA_OF_ASC_NODE":192.0248,"ARG_OF_PERICENTER":123.8847,"MEAN_ANOMALY":236.4342,"EPHEMERIS_TYPE":0,"CLASSIFICATION_TYPE":"U","NORAD_CAT_ID":44311,"ELEMENT_SET_NO":999,"REV_AT_EPOCH":37256,"BSTAR":0.00059375374,"MEAN_MOTION_DOT":0.00015236,"MEAN_MOTION_DDOT":0},{"OBJECT_NAME":"STARLINK-31190","OBJECT_ID":"2024-020X","EPOCH":"2026-03-09T22:09:32.690592","MEAN_MOTION":15.30188373,"ECCENTRICITY":0.00011214,"INCLINATION":53.1604,"RA_OF_ASC_NODE":321.5649,"ARG_OF_PERICENTER":75.7003,"MEAN_ANOMALY":284.4123,"EPHEMERIS_TYPE":0,"CLASSIFICATION_TYPE":"U","NORAD_CAT_ID":58897,"ELEMENT_SET_NO":999,"REV_AT_EPOCH":11810,"BSTAR":4.9819578e-5,"MEAN_MOTION_DOT":1.116e-5,"MEAN_MOTION_DDOT":0}]
